IRIDIUM 144             
1 43249U 18030A   23273.23855002  .00000473  00000+0  16186-3 0  9994
2 43249  86.4015 344.5777 0001997  92.7090 267.4335 14.34222879288109
IRIDIUM 149             
1 43250U 18030B   23273.45420549  .00000498  00000+0  17062-3 0  9995
2 43250  86.4013 344.4652 0001906  94.5435 265.5979 14.34219012288156
IRIDIUM 157             
1 43251U 18030C   23273.47323546  .00000456  00000+0  15570-3 0  9993
2 43251  86.4015 344.4887 0002415  92.7415 267.4057 14.34216229288136
IRIDIUM 140             
1 43252U 18030D   23273.21318426  .00000492  00000+0  16850-3 0  9999
2 43252  86.4014 344.6117 0001931  86.6804 273.4612 14.34220774288156
IRIDIUM 145             
1 43253U 18030E   23273.27027032  .00000518  00000+0  17783-3 0  9991
2 43253  86.4015 344.5627 0001770  98.5868 261.5529 14.34217470288093
IRIDIUM 146             
1 43254U 18030F   23273.73963306  .00000443  00000+0  15101-3 0  9995
2 43254  86.4014 344.3823 0002009 101.4618 258.6804 14.34217788288176
IRIDIUM 148             
1 43255U 18030G   23273.49860316 -.00000342  00000+0 -12903-3 0  9993
2 43255  86.4009 344.5111 0001939 103.1646 256.9767 14.34218524288183
IRIDIUM 142             
1 43256U 18030H   23273.18780511  .00000461  00000+0  15767-3 0  9999
2 43256  86.4019 344.5658 0002301  93.3501 266.7958 14.34215542288093
